{
  "type": "FeatureCollection",
  "features": [
    {
      "type": "Feature",
      "properties": {
        "title": "2019.12.05 石狩月形",
        "image": "photos/11/20191205_DSC_1963_web.JPG"
      },
      "geometry": {
        "type": "Point",
        "coordinates": [141.6705, 43.3411]
      }
    },
    {
      "type": "Feature",
      "properties": {
        "title": "2019.09.13 新十津川",
        "image": "photos/01/20190913_DSC_5762_web.JPG"
      },
      "geometry": {
        "type": "Point",
        "coordinates": [141.8748, 43.5459]
      }
    },
    {
      "type": "Feature",
      "properties": {
        "title": "2019.07.11 新十津川",
        "image": "photos/01/20190711_DSC_5014_web.JPG"
      },
      "geometry": {
        "type": "Point",
        "coordinates": [141.8737, 43.5481]
      }
    },
    {
      "type": "Feature",
      "properties": {
        "title": "2019.05.05 新十津川",
        "image": "photos/01/20190505_DSC_5838_web.JPG"
      },
      "geometry": {
        "type": "Point",
        "coordinates": [141.8744, 43.5458]
      }
    },
    {
      "type": "Feature",
      "properties": {
        "title": "2020.03.09 新十津川～下徳富",
        "image": "photos/01/20200309_DSC_9682_web.JPG"
      },
      "geometry": {
        "type": "Point",
        "coordinates": [141.8657, 43.5366]
      }
    },
    {
      "type": "Feature",
      "properties": {
        "title": "2019.10.10 新十津川～下徳富",
        "image": "photos/01/20191010_DSC_1541_web.JPG"
      },
      "geometry": {
        "type": "Point",
        "coordinates": [141.8631, 43.5165]
      }
    },
    {
      "type": "Feature",
      "properties": {
        "title": "2020.03.09 新十津川～下徳富",
        "image": "photos/01/20200309_DSC_9633_web.JPG"
      },
      "geometry": {
        "type": "Point",
        "coordinates": [141.8424, 43.5180]
      }
    },
    {
      "type": "Feature",
      "properties": {
        "title": "2019.11.17 新十津川～下徳富",
        "image": "photos/01/20191117_DSC_0149_web.JPG"
      },
      "geometry": {
        "type": "Point",
        "coordinates": [141.8612, 43.5142]
      }
    },
    {
      "type": "Feature",
      "properties": {
        "title": "2020.02.27 新十津川～下徳富",
        "image": "photos/01/20200227_DSC_6851_web.JPG"
      },
      "geometry": {
        "type": "Point",
        "coordinates": [141.8620, 43.5139]
      }
    },
    {
      "type": "Feature",
      "properties": {
        "title": "2019.08.06 新十津川～下徳富",
        "image": "photos/01/20190806_DSC_8877_web.JPG"
      },
      "geometry": {
        "type": "Point",
        "coordinates": [141.8581, 43.5056]
      }
    },
    {
      "type": "Feature",
      "properties": {
        "title": "2019.09.24 下徳富",
        "image": "photos/02/20190924_DSC_9248_web.JPG"
      },
      "geometry": {
        "type": "Point",
        "coordinates": [141.8562, 43.5026]
      }
    },
    {
      "type": "Feature",
      "properties": {
        "title": "2020.04.13 下徳富～南下徳富",
        "image": "photos/02/20200413_DSC_6044_web.JPG"
      },
      "geometry": {
        "type": "Point",
        "coordinates": [141.8506, 43.4940]
      }
    },
    {
      "type": "Feature",
      "properties": {
        "title": "2018.08.20 南下徳富",
        "image": "photos/03/20180820_DSCN7800_web.JPG"
      },
      "geometry": {
        "type": "Point",
        "coordinates": [141.8436, 43.4863]
      }
    },
    {
      "type": "Feature",
      "properties": {
        "title": "2019.05.25 於札内",
        "image": "photos/04/20190525_DSC_0225_web.JPG"
      },
      "geometry": {
        "type": "Point",
        "coordinates": [141.8311, 43.4727]
      }
    },
    {
      "type": "Feature",
      "properties": {
        "title": "2019.09.12 於札内～鶴沼",
        "image": "photos/04/20190912_DSC_5506_web.JPG"
      },
      "geometry": {
        "type": "Point",
        "coordinates": [141.8310, 43.4726]
      }
    },
    {
      "type": "Feature",
      "properties": {
        "title": "2020.01.28 於札内～鶴沼",
        "image": "photos/04/20200128_DSC_1607_web.JPG"
      },
      "geometry": {
        "type": "Point",
        "coordinates": [141.8328, 43.4603]
      }
    },
    {
      "type": "Feature",
      "properties": {
        "title": "2019.07.11 鶴沼",
        "image": "photos/05/20190711_DSC_5078_web.JPG"
      },
      "geometry": {
        "type": "Point",
        "coordinates": [141.8420, 43.4567]
      }
    },
    {
      "type": "Feature",
      "properties": {
        "title": "2019.11.05 鶴沼～浦臼",
        "image": "photos/05/20191105_DSC_8687_web.JPG"
      },
      "geometry": {
        "type": "Point",
        "coordinates": [141.8341, 43.4499]
      }
    },
    {
      "type": "Feature",
      "properties": {
        "title": "2020.02.16 浦臼",
        "image": "photos/06/20200216_DSC_3201_web.JPG"
      },
      "geometry": {
        "type": "Point",
        "coordinates": [141.8180, 43.4318]
      }
    },
    {
      "type": "Feature",
      "properties": {
        "title": "2019.09.20 浦臼～札的",
        "image": "photos/06/20190920_DSC_7178_web.JPG"
      },
      "geometry": {
        "type": "Point",
        "coordinates": [141.7576, 43.4642]
      }
    },
    {
      "type": "Feature",
      "properties": {
        "title": "2019.05.26 浦臼～札的",
        "image": "photos/06/20190526_DSC_1235_web.JPG"
      },
      "geometry": {
        "type": "Point",
        "coordinates": [141.8064, 43.4211]
      }
    },
    {
      "type": "Feature",
      "properties": {
        "title": "2019.04.28 札的",
        "image": "photos/07/20190428_DSC_1565_web.JPG"
      },
      "geometry": {
        "type": "Point",
        "coordinates": [141.8051, 43.4203]
      }
    },
    {
      "type": "Feature",
      "properties": {
        "title": "2020.01.09 札的～晩生内",
        "image": "photos/07/20200109_DSC_7702_web.JPG"
      },
      "geometry": {
        "type": "Point",
        "coordinates": [141.8036, 43.4182]
      }
    },
    {
      "type": "Feature",
      "properties": {
        "title": "2019.08.06 札的～晩生内",
        "image": "photos/07/20190806_DSC_8818_web.JPG"
      },
      "geometry": {
        "type": "Point",
        "coordinates": [141.8000, 43.4158]
      }
    },
    {
      "type": "Feature",
      "properties": {
        "title": "2019.04.13 札的～晩生内",
        "image": "photos/07/20190413_DSC_0074_web.JPG"
      },
      "geometry": {
        "type": "Point",
        "coordinates": [141.7954, 43.4074]
      }
    },
    {
      "type": "Feature",
      "properties": {
        "title": "2019.07.22 晩生内",
        "image": "photos/08/20190722_DSC_7908_web.JPG"
      },
      "geometry": {
        "type": "Point",
        "coordinates": [141.7798, 43.4005]
      }
    },
    {
      "type": "Feature",
      "properties": {
        "title": "2019.10.10 晩生内～札比内",
        "image": "photos/08/20191010_DSC_1806_web.JPG"
      },
      "geometry": {
        "type": "Point",
        "coordinates": [141.7742, 43.3947]
      }
    },
    {
      "type": "Feature",
      "properties": {
        "title": "2019.09.12 晩生内～札比内",
        "image": "photos/08/20190912_DSC_5724_web.JPG"
      },
      "geometry": {
        "type": "Point",
        "coordinates": [141.7471, 43.3742]
      }
    },
    {
      "type": "Feature",
      "properties": {
        "title": "2019.12.29 札比内",
        "image": "photos/09/20191229_DSC_5275_web.JPG"
      },
      "geometry": {
        "type": "Point",
        "coordinates": [141.6686, 43.3715]
      }
    },
    {
      "type": "Feature",
      "properties": {
        "title": "2019.12.07 札比内",
        "image": "photos/09/20191207_DSC_2457_web.JPG"
      },
      "geometry": {
        "type": "Point",
        "coordinates": [141.7438, 43.3705]
      }
    },
    {
      "type": "Feature",
      "properties": {
        "title": "2019.07.01 札比内",
        "image": "photos/09/20190701_DSC_4057_web.JPG"
      },
      "geometry": {
        "type": "Point",
        "coordinates": [141.7431, 43.3710]
      }
    },
    {
      "type": "Feature",
      "properties": {
        "title": "2019.12.07 札比内",
        "image": "photos/09/20191207_DSC_2738_web.JPG"
      },
      "geometry": {
        "type": "Point",
        "coordinates": [141.7433, 43.3708]
      }
    },
    {
      "type": "Feature",
      "properties": {
        "title": "2020.04.16 札比内～豊ケ岡",
        "image": "photos/09/20200416_DSC_7737_web.JPG"
      },
      "geometry": {
        "type": "Point",
        "coordinates": [141.7365, 43.3666]
      }
    },
    {
      "type": "Feature",
      "properties": {
        "title": "2018.05.12 札比内～豊ケ岡",
        "image": "photos/09/20180512_DSCN2535_web.JPG"
      },
      "geometry": {
        "type": "Point",
        "coordinates": [141.7358, 43.3662]
      }
    },
    {
      "type": "Feature",
      "properties": {
        "title": "2019.05.16 札比内～豊ケ岡",
        "image": "photos/09/20190516_DSC_8038_web.JPG"
      },
      "geometry": {
        "type": "Point",
        "coordinates": [141.7380, 43.3668]
      }
    },
    {
      "type": "Feature",
      "properties": {
        "title": "2019.05.16 札比内～豊ケ岡",
        "image": "photos/09/20190516_DSC_8110_web.JPG"
      },
      "geometry": {
        "type": "Point",
        "coordinates": [141.7389, 43.3673]
      }
    },
    {
      "type": "Feature",
      "properties": {
        "title": "2018.07.08 札比内～豊ケ岡",
        "image": "photos/09/20180708_DSCN4930_web.JPG"
      },
      "geometry": {
        "type": "Point",
        "coordinates": [141.7356, 43.3663]
      }
    },
    {
      "type": "Feature",
      "properties": {
        "title": "2020.03.25 札比内～豊ケ岡",
        "image": "photos/09/20200325_DSC_2962_web.JPG"
      },
      "geometry": {
        "type": "Point",
        "coordinates": [141.7359, 43.3662]
      }
    },
    {
      "type": "Feature",
      "properties": {
        "title": "2020.02.27 札比内～豊ケ岡",
        "image": "photos/09/20200227_DSC_7132_web.JPG"
      },
      "geometry": {
        "type": "Point",
        "coordinates": [141.7314, 43.3692]
      }
    },
    {
      "type": "Feature",
      "properties": {
        "title": "2019.10.23 豊ケ岡",
        "image": "photos/10/20191023_DSC_5327_web.JPG"
      },
      "geometry": {
        "type": "Point",
        "coordinates": [141.7144, 43.3667]
      }
    },
    {
      "type": "Feature",
      "properties": {
        "title": "2019.10.18 豊ケ岡",
        "image": "photos/10/20191018_DSC_3745_web.JPG"
      },
      "geometry": {
        "type": "Point",
        "coordinates": [141.7158, 43.3673]
      }
    },
    {
      "type": "Feature",
      "properties": {
        "title": "2019.09.17 豊ケ岡～石狩月形",
        "image": "photos/10/20190917_DSC_6928_web.JPG"
      },
      "geometry": {
        "type": "Point",
        "coordinates": [141.6605, 43.3455]
      }
    }
  ]
}